{"type": "FeatureCollection", "features": [ {"type": "Feature", "properties": {"norad_id": 44476, "name": "INTELSAT 39 (IS-39)", "group": "intelsat", "lat": 0.003497317644735221, "lon": 44.41661714681803, "alt_km": 35786.68124738469, "timestamp": "2025-12-21T16:47:54.396953+00:00", "meta": {"OBJECT_NAME": "INTELSAT 39 (IS-39)", "OBJECT_ID": "2019-049B", "EPOCH": "2025-12-21T11:46:48.398016", "MEAN_MOTION": 1.00270807, "ECCENTRICITY": 0.0001101, "INCLINATION": 0.0011, "RA_OF_ASC_NODE": 79.4939, "ARG_OF_PERICENTER": 59.3805, "MEAN_ANOMALY": 190.0826, "EPHEMERIS_TYPE": 0, "CLASSIFICATION_TYPE": "U", "NORAD_CAT_ID": 44476, "ELEMENT_SET_NO": 999, "REV_AT_EPOCH": 2334, "BSTAR": 0, "MEAN_MOTION_DOT": 5.6e-07, "MEAN_MOTION_DDOT": 0}, "tle": {"line1": "1 44476U 19049B   25355.49083794  .00000056  00000+0  00000+0 0  9991", "line2": "2 44476   0.0011  79.4939 0001101  59.3805 190.0826  1.00270807 23346"}}, "geometry": {"type": "Point", "coordinates": [44.41661714681803, 0.003497317644735221]}}, {"type": "Feature", "properties": {"norad_id": 46114, "name": "GALAXY 30 (G-30)", "group": "intelsat", "lat": -0.030183016585782062, "lon": -142.5096923331861, "alt_km": 35780.53066384695, "timestamp": "2025-12-21T16:47:54.396964+00:00", "meta": {"OBJECT_NAME": "GALAXY 30 (G-30)", "OBJECT_ID": "2020-056C", "EPOCH": "2025-12-21T00:37:13.930752", "MEAN_MOTION": 1.00273357, "ECCENTRICITY": 0.00020294, "INCLINATION": 0.0178, "RA_OF_ASC_NODE": 349.0054, "ARG_OF_PERICENTER": 282.3653, "MEAN_ANOMALY": 62.8096, "EPHEMERIS_TYPE": 0, "CLASSIFICATION_TYPE": "U", "NORAD_CAT_ID": 46114, "ELEMENT_SET_NO": 999, "REV_AT_EPOCH": 1950, "BSTAR": 0, "MEAN_MOTION_DOT": 6e-07, "MEAN_MOTION_DDOT": 0}, "tle": {"line1": "1 46114U 20056C   25355.02585568  .00000060  00000+0  00000+0 0  9992", "line2": "2 46114   0.0178 349.0054 0002029 282.3653  62.8096  1.00273357 19505"}}, "geometry": {"type": "Point", "coordinates": [-142.5096923331861, -0.030183016585782062]}}, {"type": "Feature", "properties": {"norad_id": 54026, "name": "GALAXY 33 (G-33)", "group": "intelsat", "lat": 0.0003970874101267734, "lon": -150.53086800697105, "alt_km": 35782.88767965032, "timestamp": "2025-12-21T16:47:54.396978+00:00", "meta": {"OBJECT_NAME": "GALAXY 33 (G-33)", "OBJECT_ID": "2022-128A", "EPOCH": "2025-12-21T09:30:38.534112", "MEAN_MOTION": 1.00271517, "ECCENTRICITY": 0.0001563, "INCLINATION": 0.018, "RA_OF_ASC_NODE": 50.6658, "ARG_OF_PERICENTER": 219.4803, "MEAN_ANOMALY": 189.7317, "EPHEMERIS_TYPE": 0, "CLASSIFICATION_TYPE": "U", "NORAD_CAT_ID": 54026, "ELEMENT_SET_NO": 999, "REV_AT_EPOCH": 1196, "BSTAR": 0, "MEAN_MOTION_DOT": 1.02e-06, "MEAN_MOTION_DDOT": 0}, "tle": {"line1": "1 54026U 22128A   25355.39627933  .00000102  00000+0  00000+0 0  9995", "line2": "2 54026   0.0180  50.6658 0001563 219.4803 189.7317  1.00271517 11967"}}, "geometry": {"type": "Point", "coordinates": [-150.53086800697105, 0.0003970874101267734]}}, {"type": "Feature", "properties": {"norad_id": 54027, "name": "GALAXY 34 (G-34)", "group": "intelsat", "lat": -0.01820424300958806, "lon": -146.4854240075669, "alt_km": 35782.52386092597, "timestamp": "2025-12-21T16:47:54.396989+00:00", "meta": {"OBJECT_NAME": "GALAXY 34 (G-34)", "OBJECT_ID": "2022-128B", "EPOCH": "2025-12-21T09:30:38.534112", "MEAN_MOTION": 1.0026817, "ECCENTRICITY": 0.0001761, "INCLINATION": 0.0237, "RA_OF_ASC_NODE": 17.5979, "ARG_OF_PERICENTER": 248.2874, "MEAN_ANOMALY": 198.042, "EPHEMERIS_TYPE": 0, "CLASSIFICATION_TYPE": "U", "NORAD_CAT_ID": 54027, "ELEMENT_SET_NO": 999, "REV_AT_EPOCH": 1213, "BSTAR": 0, "MEAN_MOTION_DOT": 0, "MEAN_MOTION_DDOT": 0}, "tle": {"line1": "1 54027U 22128B   25355.39627933  .00000000  00000+0  00000+0 0  9993", "line2": "2 54027   0.0237  17.5979 0001761 248.2874 198.0420  1.00268170 12136"}}, "geometry": {"type": "Point", "coordinates": [-146.4854240075669, -0.01820424300958806]}}, {"type": "Feature", "properties": {"norad_id": 54243, "name": "GALAXY 31 (G-31)", "group": "intelsat", "lat": 0.0008070050812757253, "lon": -138.530228691094, "alt_km": 35783.10661363934, "timestamp": "2025-12-21T16:47:54.397001+00:00", "meta": {"OBJECT_NAME": "GALAXY 31 (G-31)", "OBJECT_ID": "2022-153A", "EPOCH": "2025-12-21T07:29:09.697056", "MEAN_MOTION": 1.00271234, "ECCENTRICITY": 0.0001386, "INCLINATION": 0.0226, "RA_OF_ASC_NODE": 88.887, "ARG_OF_PERICENTER": 190.6923, "MEAN_ANOMALY": 161.8441, "EPHEMERIS_TYPE": 0, "CLASSIFICATION_TYPE": "U", "NORAD_CAT_ID": 54243, "ELEMENT_SET_NO": 999, "REV_AT_EPOCH": 534, "BSTAR": 0, "MEAN_MOTION_DOT": 3.6e-07, "MEAN_MOTION_DDOT": 0}, "tle": {"line1": "1 54243U 22153A   25355.31191779  .00000036  00000+0  00000+0 0  9996", "line2": "2 54243   0.0226  88.8870 0001386 190.6923 161.8441  1.00271234  5344"}}, "geometry": {"type": "Point", "coordinates": [-138.530228691094, 0.0008070050812757253]}}, {"type": "Feature", "properties": {"norad_id": 54244, "name": "GALAXY 32 (G-32)", "group": "intelsat", "lat": -0.03459911120026864, "lon": -108.5360954123382, "alt_km": 35783.41439688559, "timestamp": "2025-12-21T16:47:54.397013+00:00", "meta": {"OBJECT_NAME": "GALAXY 32 (G-32)", "OBJECT_ID": "2022-153B", "EPOCH": "2025-12-21T04:12:15.832800", "MEAN_MOTION": 1.00270554, "ECCENTRICITY": 0.0001949, "INCLINATION": 0.0108, "RA_OF_ASC_NODE": 337.5471, "ARG_OF_PERICENTER": 342.4382, "MEAN_ANOMALY": 102.082, "EPHEMERIS_TYPE": 0, "CLASSIFICATION_TYPE": "U", "NORAD_CAT_ID": 54244, "ELEMENT_SET_NO": 999, "REV_AT_EPOCH": 1135, "BSTAR": 0, "MEAN_MOTION_DOT": -1.51e-06, "MEAN_MOTION_DDOT": 0}, "tle": {"line1": "1 54244U 22153B   25355.17518325 -.00000151  00000+0  00000+0 0  9990", "line2": "2 54244   0.0108 337.5471 0001949 342.4382 102.0820  1.00270554 11356"}}, "geometry": {"type": "Point", "coordinates": [-108.5360954123382, -0.03459911120026864]}}, {"type": "Feature", "properties": {"norad_id": 54741, "name": "GALAXY 35 (G-35)", "group": "intelsat", "lat": -0.015102710433048968, "lon": -110.61800892593807, "alt_km": 35777.63622713318, "timestamp": "2025-12-21T16:47:54.397024+00:00", "meta": {"OBJECT_NAME": "GALAXY 35 (G-35)", "OBJECT_ID": "2022-170A", "EPOCH": "2025-12-21T11:05:40.979040", "MEAN_MOTION": 1.00271983, "ECCENTRICITY": 0.0002167, "INCLINATION": 0.0147, "RA_OF_ASC_NODE": 67.594, "ARG_OF_PERICENTER": 205.5919, "MEAN_ANOMALY": 250.424, "EPHEMERIS_TYPE": 0, "CLASSIFICATION_TYPE": "U", "NORAD_CAT_ID": 54741, "ELEMENT_SET_NO": 999, "REV_AT_EPOCH": 1111, "BSTAR": 0, "MEAN_MOTION_DOT": -1.4e-06, "MEAN_MOTION_DDOT": 0}, "tle": {"line1": "1 54741U 22170A   25355.46227985 -.00000140  00000+0  00000+0 0  9990", "line2": "2 54741   0.0147  67.5940 0002167 205.5919 250.4240  1.00271983 11115"}}, "geometry": {"type": "Point", "coordinates": [-110.61800892593807, -0.015102710433048968]}}, {"type": "Feature", "properties": {"norad_id": 54742, "name": "GALAXY 36 (G-36)", "group": "intelsat", "lat": -0.031642345906429184, "lon": -106.52703802241564, "alt_km": 35786.9884801908, "timestamp": "2025-12-21T16:47:54.397036+00:00", "meta": {"OBJECT_NAME": "GALAXY 36 (G-36)", "OBJECT_ID": "2022-170B", "EPOCH": "2025-12-21T11:03:49.139424", "MEAN_MOTION": 1.00269074, "ECCENTRICITY": 4.26e-05, "INCLINATION": 0.0152, "RA_OF_ASC_NODE": 31.0122, "ARG_OF_PERICENTER": 316.6289, "MEAN_ANOMALY": 179.5898, "EPHEMERIS_TYPE": 0, "CLASSIFICATION_TYPE": "U", "NORAD_CAT_ID": 54742, "ELEMENT_SET_NO": 999, "REV_AT_EPOCH": 1099, "BSTAR": 0, "MEAN_MOTION_DOT": 0, "MEAN_MOTION_DDOT": 0}, "tle": {"line1": "1 54742U 22170B   25355.46098541  .00000000  00000+0  00000+0 0  9999", "line2": "2 54742   0.0152  31.0122 0000426 316.6289 179.5898  1.00269074 10993"}}, "geometry": {"type": "Point", "coordinates": [-106.52703802241564, -0.031642345906429184]}}, {"type": "Feature", "properties": {"norad_id": 57493, "name": "GALAXY 37 (G-37)", "group": "intelsat", "lat": -0.019703700128710738, "lon": -144.54197554339288, "alt_km": 35781.980726500246, "timestamp": "2025-12-21T16:47:54.397047+00:00", "meta": {"OBJECT_NAME": "GALAXY 37 (G-37)", "OBJECT_ID": "2023-112A", "EPOCH": "2025-12-21T10:52:57.679104", "MEAN_MOTION": 1.00271091, "ECCENTRICITY": 0.0001942, "INCLINATION": 0.0141, "RA_OF_ASC_NODE": 9.7662, "ARG_OF_PERICENTER": 264.379, "MEAN_ANOMALY": 212.3614, "EPHEMERIS_TYPE": 0, "CLASSIFICATION_TYPE": "U", "NORAD_CAT_ID": 57493, "ELEMENT_SET_NO": 999, "REV_AT_EPOCH": 876, "BSTAR": 0, "MEAN_MOTION_DOT": 7.1e-07, "MEAN_MOTION_DDOT": 0}, "tle": {"line1": "1 57493U 23112A   25355.45344536  .00000071  00000+0  00000+0 0  9997", "line2": "2 57493   0.0141   9.7662 0001942 264.3790 212.3614  1.00271091  8764"}}, "geometry": {"type": "Point", "coordinates": [-144.54197554339288, -0.019703700128710738]}}]}